[{"OBJECT_NAME":"STARLINK-31630","OBJECT_ID":"2024-050T","EPOCH":"2026-03-09T13:39:04.940352","MEAN_MOTION":15.30200807,"ECCENTRICITY":0.0001409,"INCLINATION":53.16,"RA_OF_ASC_NODE":168.5079,"ARG_OF_PERICENTER":92.3163,"MEAN_ANOMALY":267.7999,"EPHEMERIS_TYPE":0,"CLASSIFICATION_TYPE":"U","NORAD_CAT_ID":59271,"ELEMENT_SET_NO":999,"REV_AT_EPOCH":11071,"BSTAR":-5.7526e-5,"MEAN_MOTION_DOT":-2.063e-5,"MEAN_MOTION_DDOT":0},{"OBJECT_NAME":"STARLINK-33796","OBJECT_ID":"2025-071Y","EPOCH":"2026-03-09T10:28:32.392128","MEAN_MOTION":15.30196497,"ECCENTRICITY":0.00014628,"INCLINATION":53.1582,"RA_OF_ASC_NODE":140.8843,"ARG_OF_PERICENTER":84.6787,"MEAN_ANOMALY":275.4381,"EPHEMERIS_TYPE":0,"CLASSIFICATION_TYPE":"U","NORAD_CAT_ID":63515,"ELEMENT_SET_NO":999,"REV_AT_EPOCH":5273,"BSTAR":0.0018412911,"MEAN_MOTION_DOT":0.0005457,"MEAN_MOTION_DDOT":0}]
