STARLINK-31630          
1 59271U 24050T   26068.56880718 -.00002063  00000+0 -57526-4 0  9991
2 59271  53.1600 168.5079 0001409  92.3163 267.7999 15.30200807110710
STARLINK-33796          
1 63515U 25071Y   26068.43648602  .00054570  00000+0  18413-2 0  9999
2 63515  53.1582 140.8843 0001462  84.6787 275.4381 15.30196497 52739
